STARLINK-31534          
1 59398U 24064A   26068.32047092 -.00000736  00000+0 -17248-4 0  9992
2 59398  43.0026  57.8874 0000936 254.4263 105.6485 15.27574218109117
FLOCK 4G-23             
1 62647U 25009AQ  26068.71663397  .00012440  00000+0  46816-3 0  9993
2 62647  97.3979 150.9478 0000905   7.2707 352.8545 15.27262579 63728
